{
"type": "FeatureCollection",
"name": "perim_alea_tech",
"crs": { "type": "name", "properties": { "name": "urn:ogc:def:crs:OGC:1.3:CRS84" } },
"features": [
{ "type": "Feature", "properties": { "id": null, "Impacts": "Modére (Inondation La Flèche) Elevé (Inondation rupture de barrage)" }, "geometry": { "type": "MultiPolygon", "coordinates": [ [ [ [ -3.589516626218497, 47.961783006505875 ], [ -3.589574920381011, 47.961775944523367 ], [ -3.589654465140501, 47.961764918973984 ], [ -3.58969836881483, 47.961759763266116 ], [ -3.589763481641121, 47.961751740465822 ], [ -3.589849112726315, 47.961739190727464 ], [ -3.589908201269328, 47.961731047167845 ], [ -3.589967959955881, 47.961725111623934 ], [ -3.590059449462102, 47.961717068314599 ], [ -3.590222746054641, 47.961703330554563 ], [ -3.590326346104507, 47.961693883599253 ], [ -3.590398926922822, 47.961687655948573 ], [ -3.590577304648102, 47.961673671017316 ], [ -3.590700317662471, 47.961669001687085 ], [ -3.590784152427746, 47.961664096432763 ], [ -3.590874681606505, 47.961661519771454 ], [ -3.590976547630641, 47.961658072695805 ], [ -3.591047518739788, 47.961654555665412 ], [ -3.59113509789376, 47.96165027375978 ], [ -3.59124508156127, 47.961651378188797 ], [ -3.59133324809022, 47.9616514971285 ], [ -3.591450782759514, 47.961652203844707 ], [ -3.591520876587966, 47.961651960880118 ], [ -3.591623371376289, 47.961651817717986 ], [ -3.591740885349365, 47.961653072361244 ], [ -3.591822841350217, 47.961658004508699 ], [ -3.592006435652986, 47.961665519207877 ], [ -3.592118492183598, 47.961671602132121 ], [ -3.592235861337826, 47.961676693929945 ], [ -3.592344152765131, 47.961682701283635 ], [ -3.592377977026624, 47.961685024005796 ], [ -3.592460561996136, 47.961693260187594 ], [ -3.592568687937624, 47.961703653250169 ], [ -3.592673069457939, 47.961713422641218 ], [ -3.592749692339153, 47.9617198933623 ], [ -3.592846522923605, 47.961730060188842 ], [ -3.592911871074937, 47.961735756604554 ], [ -3.592956155065661, 47.961740482991885 ], [ -3.593015416927712, 47.961747703570488 ], [ -3.593080620301934, 47.961757237576869 ], [ -3.5932035381751, 47.961775058381278 ], [ -3.593294241252649, 47.961787845531269 ], [ -3.593389441875919, 47.961801271204266 ], [ -3.593435902314366, 47.961808235541682 ], [ -3.59352060192354, 47.961820353787481 ], [ -3.593568589140545, 47.961826799943388 ], [ -3.593648708564541, 47.961840472465511 ], [ -3.593775143781131, 47.961864946814451 ], [ -3.593847712298669, 47.961879016863691 ], [ -3.593959169738518, 47.961900996904127 ], [ -3.594048975399832, 47.961917606062535 ], [ -3.594122297084462, 47.961931690983484 ], [ -3.594175410956465, 47.961942079946226 ], [ -3.594268001439439, 47.961964779802393 ], [ -3.594332977833392, 47.961980343720235 ], [ -3.59440094572538, 47.961996516051272 ], [ -3.594439040363964, 47.962005507351158 ], [ -3.59447190512009, 47.962013296789884 ], [ -3.59452491576055, 47.962026426792768 ], [ -3.594579473842506, 47.962038490387961 ], [ -3.594642944333418, 47.962054024018506 ], [ -3.594721372209031, 47.962072599828595 ], [ -3.594818295292076, 47.96210032369828 ], [ -3.594892772071297, 47.962123758317404 ], [ -3.594975573653876, 47.962146261934578 ], [ -3.595040426429566, 47.962165114884336 ], [ -3.595105279247791, 47.962183967795582 ], [ -3.595160404626148, 47.962200980328426 ], [ -3.595247662649403, 47.96222521874914 ], [ -3.595313959679665, 47.962245746356665 ], [ -3.595357119231569, 47.962260325082255 ], [ -3.595462728093136, 47.962297549050191 ], [ -3.595520050809213, 47.962316251264156 ], [ -3.595590721629652, 47.962340706669089 ], [ -3.595665828095239, 47.96236744526049 ], [ -3.595726101118875, 47.962387852268662 ], [ -3.595807211370012, 47.962415259351459 ], [ -3.59586595775127, 47.962436184439774 ], [ -3.595968389817309, 47.962477733691507 ], [ -3.596084923232548, 47.96252505104956 ], [ -3.596166600963572, 47.962557407090927 ], [ -3.596251982027153, 47.962591482997716 ], [ -3.596302424619153, 47.96261279065903 ], [ -3.596401886453383, 47.962653182864109 ], [ -3.596510807516819, 47.962702542355728 ], [ -3.596588555279101, 47.96273920883678 ], [ -3.596643351163481, 47.962764992507978 ], [ -3.596692226000966, 47.962787914645432 ], [ -3.596756667003041, 47.962817731435067 ], [ -3.596821819813434, 47.962848659708541 ], [ -3.596881825277896, 47.962876193239453 ], [ -3.596972024246919, 47.962922435178598 ], [ -3.597028935067628, 47.962952101463024 ], [ -3.597088734240089, 47.962985117311518 ], [ -3.597167864955432, 47.963025102910557 ], [ -3.597201050086846, 47.963044419665337 ], [ -3.597305980202711, 47.963099733880981 ], [ -3.59738802019244, 47.963142520667382 ], [ -3.597431521059866, 47.963168078471455 ], [ -3.597516201818917, 47.963220793665705 ], [ -3.597569306666076, 47.963251481005145 ], [ -3.597633418325413, 47.963290069175386 ], [ -3.597704142392949, 47.963333178520919 ], [ -3.597761559327734, 47.963369438378606 ], [ -3.597811693514331, 47.963398968999449 ], [ -3.597864778041144, 47.963430204441451 ], [ -3.597916191378792, 47.963465795748981 ], [ -3.598021298053241, 47.963536475132244 ], [ -3.598215068748119, 47.963674213572524 ], [ -3.598350411784886, 47.963762504258106 ], [ -3.598458645081982, 47.96385025390915 ], [ -3.598651757550485, 47.964005535397938 ], [ -3.598818503575668, 47.964140539001704 ], [ -3.598967259340245, 47.964272988889768 ], [ -3.599113168570044, 47.964400992555767 ], [ -3.599191859147991, 47.964472789889399 ], [ -3.599287550848293, 47.964573456306908 ], [ -3.599400738988108, 47.964689833910462 ], [ -3.599502373484937, 47.964792813272766 ], [ -3.599551767231943, 47.964842079910788 ], [ -3.599689797355686, 47.964939200974037 ], [ -3.59988064696761, 47.965074683537239 ], [ -3.600027632645858, 47.96517417733731 ], [ -3.600174041436055, 47.965289021791477 ], [ -3.60035552646463, 47.965433095316946 ], [ -3.600574853194497, 47.965613036721805 ], [ -3.600694482998252, 47.965718568243894 ], [ -3.600802146321973, 47.965821666534573 ], [ -3.6010063317036, 47.966003499934821 ], [ -3.601139705721213, 47.966144418807069 ], [ -3.601252735812948, 47.966265180569977 ], [ -3.601435755105929, 47.966448786060546 ], [ -3.601594429160765, 47.96663849013126 ], [ -3.601770107110844, 47.966857062791199 ], [ -3.601861970656543, 47.966979596923473 ], [ -3.601982475189223, 47.967142204668498 ], [ -3.602125101868308, 47.96735792385072 ], [ -3.602267482391785, 47.96758022182852 ], [ -3.602408957576562, 47.967826642475806 ], [ -3.602544161847706, 47.968079521967283 ], [ -3.602658444747108, 47.968327595503524 ], [ -3.602763938331758, 47.968568910074943 ], [ -3.602835342474917, 47.968754680241695 ], [ -3.602977328307395, 47.969148150370799 ], [ -3.603076975726939, 47.969545166839069 ], [ -3.603113808076365, 47.969848758571437 ], [ -3.603173423366699, 47.970187917900041 ], [ -3.603176906386633, 47.97041622854023 ], [ -3.603203430983116, 47.970833735924607 ], [ -3.603196770004375, 47.971171576213884 ], [ -3.603158005360983, 47.971561448682763 ], [ -3.603095797907882, 47.9719332975735 ], [ -3.603055455503315, 47.972204628754206 ], [ -3.602971287193265, 47.972518980200611 ], [ -3.602890413661497, 47.972745611976194 ], [ -3.602802525295542, 47.972998439680474 ], [ -3.602723463210632, 47.973176825574669 ], [ -3.60257053901421, 47.973555647154093 ], [ -3.602421898222227, 47.973820432971138 ], [ -3.602312376406945, 47.974006990764863 ], [ -3.602215729224192, 47.974171858510978 ], [ -3.602018385867801, 47.974448841952331 ], [ -3.601733219397061, 47.974816250691362 ], [ -3.601384824232206, 47.975261406272971 ], [ -3.601102453479696, 47.97555425173195 ], [ -3.600877280572913, 47.975769229257473 ], [ -3.600621152369283, 47.976005535928863 ], [ -3.600228824913891, 47.976335691781415 ], [ -3.59983847329715, 47.976613214397865 ], [ -3.599547502411009, 47.976813710023428 ], [ -3.59909655540239, 47.977098800682576 ], [ -3.598560745966086, 47.977395364875562 ], [ -3.597952454678987, 47.977694869816951 ], [ -3.597407225354854, 47.977921012110798 ], [ -3.596869670310812, 47.978103412070972 ], [ -3.59629546001756, 47.978298245476118 ], [ -3.595710681956806, 47.978453361256506 ], [ -3.595467161306323, 47.978514336914344 ], [ -3.595017101597339, 47.9786150789744 ], [ -3.594579754112906, 47.97869851603857 ], [ -3.594161641741038, 47.978751610724231 ], [ -3.593658502059587, 47.978820561316624 ], [ -3.593325911276171, 47.978844637302515 ], [ -3.59281171111473, 47.978887027079558 ], [ -3.592662083131362, 47.979336132568342 ], [ -3.59238696188303, 47.979914407107316 ], [ -3.592062134717466, 47.980531190714352 ], [ -3.591656970972562, 47.981199038109153 ], [ -3.591294252369218, 47.981700940094335 ], [ -3.591008815635562, 47.982072708539562 ], [ -3.590522407973864, 47.982655529925729 ], [ -3.590000328879616, 47.983224467393605 ], [ -3.589561559620685, 47.983663391651049 ], [ -3.589124608206133, 47.984054068290767 ], [ -3.588688148557109, 47.984431585283524 ], [ -3.588215689184765, 47.98480399003828 ], [ -3.587707063536123, 47.985175668080259 ], [ -3.586866014060345, 47.985725030963273 ], [ -3.586280352042479, 47.98606004360289 ], [ -3.585793271924836, 47.986339969598845 ], [ -3.585363087205401, 47.986550805787076 ], [ -3.584754630224592, 47.986850238681299 ], [ -3.583853550555356, 47.987231580254473 ], [ -3.582880302031113, 47.987607075731745 ], [ -3.582037268493508, 47.987888613949671 ], [ -3.58142758057088, 47.988060713361854 ], [ -3.580982282969771, 47.988192221020981 ], [ -3.580409750005303, 47.988338725753231 ], [ -3.579850934050584, 47.988441609963196 ], [ -3.579036814496638, 47.988596415999936 ], [ -3.578150532711996, 47.988745374079009 ], [ -3.577187228896814, 47.988857659087735 ], [ -3.576249531362637, 47.988930947333323 ], [ -3.574909186742661, 47.988965385476043 ], [ -3.573763210046897, 47.988964223510706 ], [ -3.572241540922301, 47.988850122270271 ], [ -3.570614402606342, 47.988654860657945 ], [ -3.568967855093421, 47.988336279873891 ], [ -3.567660175054949, 47.987989413685938 ], [ -3.566552236709983, 47.987624627100423 ], [ -3.566058038738562, 47.987456607498309 ], [ -3.565202912942257, 47.987105702758271 ], [ -3.564277489155974, 47.986700694630258 ], [ -3.56320678074793, 47.986152274081093 ], [ -3.562287935300719, 47.985576196688747 ], [ -3.561118700141924, 47.984766784621506 ], [ -3.560190222012189, 47.983971025464569 ], [ -3.559571587120665, 47.983431743295341 ], [ -3.5590373333272, 47.982894171238549 ], [ -3.558605032644898, 47.982371835606699 ], [ -3.558276839271359, 47.981965736740904 ], [ -3.558047059211286, 47.981666981158718 ], [ -3.5577488366422, 47.981265879040265 ], [ -3.557402945552497, 47.980692622317399 ], [ -3.557250673316907, 47.980417387173063 ], [ -3.556936269138866, 47.979809654241691 ], [ -3.556726299781403, 47.979309388358246 ], [ -3.556550301429515, 47.978866874504995 ], [ -3.556419819573248, 47.978495515645548 ], [ -3.556290686253791, 47.978089069296075 ], [ -3.556164585324555, 47.977603676219402 ], [ -3.55601041383369, 47.976907023443871 ], [ -3.555964034903639, 47.976230120544436 ], [ -3.555896585422697, 47.975473781153447 ], [ -3.555902045542537, 47.975017400419439 ], [ -3.555929587141505, 47.974614141075115 ], [ -3.556013076994176, 47.974010110142203 ], [ -3.556138778186463, 47.973248921795559 ], [ -3.556240641404829, 47.972794502461589 ], [ -3.556411508980942, 47.972113241152073 ], [ -3.556599067467034, 47.971625449974312 ], [ -3.556488058197058, 47.971061358226081 ], [ -3.556413538276076, 47.970489229970063 ], [ -3.55635874343769, 47.970031625524229 ], [ -3.556326029488179, 47.969627142171134 ], [ -3.556357941983258, 47.969109850852405 ], [ -3.556381507202262, 47.968495824873727 ], [ -3.556580230522549, 47.967402536225997 ], [ -3.556713583571296, 47.966755629095459 ], [ -3.556658857747973, 47.965981996778133 ], [ -3.556772147201658, 47.965229338828372 ], [ -3.556991854761157, 47.964531516824948 ], [ -3.557874025991038, 47.963223880550601 ], [ -3.559328092752626, 47.962094650691462 ], [ -3.560065112227282, 47.961740918159471 ], [ -3.560600997365598, 47.961286533377375 ], [ -3.561692808965653, 47.960483506423294 ], [ -3.563627333753956, 47.959083058322655 ], [ -3.564932901421046, 47.95836334224817 ], [ -3.566305025428843, 47.957794194537179 ], [ -3.568223274399061, 47.957130738505832 ], [ -3.569220198035131, 47.956913883549433 ], [ -3.570570165544393, 47.956607591682825 ], [ -3.572386954887715, 47.956389718083614 ], [ -3.572134613034835, 47.956051038297552 ], [ -3.57194217566569, 47.955722346453811 ], [ -3.5718404199484, 47.955228694309533 ], [ -3.571860137936726, 47.954711160456981 ], [ -3.57202207823848, 47.954257949065919 ], [ -3.572391149416485, 47.953747471306102 ], [ -3.572741152214043, 47.953420956040141 ], [ -3.573198234468599, 47.953131715521856 ], [ -3.573712205791843, 47.952931406359198 ], [ -3.574430296895153, 47.952752770442871 ], [ -3.574830470318367, 47.952374590369494 ], [ -3.575534133281487, 47.951941080412418 ], [ -3.576087226644862, 47.951662543200662 ], [ -3.576624600401834, 47.951480249690441 ], [ -3.577487552536639, 47.951295735612945 ], [ -3.578406398805928, 47.951226460609526 ], [ -3.578984617880708, 47.951238104545084 ], [ -3.579572552403316, 47.951311390206676 ], [ -3.580277289253521, 47.951483586211467 ], [ -3.580896374808153, 47.951689168396967 ], [ -3.581606845391005, 47.95202826175403 ], [ -3.582170438260301, 47.952425846714192 ], [ -3.582740099976627, 47.952981563043224 ], [ -3.583279030213528, 47.953712228197112 ], [ -3.583795874564239, 47.954389776268066 ], [ -3.584529331247753, 47.955396475812158 ], [ -3.584641163921172, 47.955626961968939 ], [ -3.584747681641455, 47.955997796943358 ], [ -3.584810330447212, 47.956253630796056 ], [ -3.58556792371721, 47.9572608084748 ], [ -3.586085158992334, 47.957929575548953 ], [ -3.586164844141506, 47.958054073378491 ], [ -3.586596997979251, 47.958422662215135 ], [ -3.586554547052669, 47.958588601820054 ], [ -3.586693477410451, 47.958740623342841 ], [ -3.58697489263046, 47.958632148177308 ], [ -3.587278843509642, 47.958884042261829 ], [ -3.587471379142639, 47.959212707634151 ], [ -3.587426939043503, 47.959431278692485 ], [ -3.587333642747013, 47.959666426957405 ], [ -3.587575369229729, 47.959969743296583 ], [ -3.587954045363532, 47.960477710319232 ], [ -3.588450225996679, 47.96106703791525 ], [ -3.588757844476948, 47.961222437935199 ], [ -3.588993505845009, 47.961367616631954 ], [ -3.5892516073317, 47.961557136932129 ], [ -3.589368444469679, 47.961656041392203 ], [ -3.589516626218497, 47.961783006505875 ] ] ] ] } },
{ "type": "Feature", "properties": { "id": null, "Impacts": "Elevé (Inondation rupture de barrage)" }, "geometry": { "type": "MultiPolygon", "coordinates": [ [ [ [ -3.619133039259119, 47.921940613959876 ], [ -3.620210130848483, 47.922137470128099 ], [ -3.620997608224327, 47.922346150346733 ], [ -3.621891170274682, 47.92261836687797 ], [ -3.622817599769712, 47.922979006241398 ], [ -3.623634045067786, 47.923381358154259 ], [ -3.62475573642241, 47.924000399796448 ], [ -3.625470343875455, 47.924549957803848 ], [ -3.625997847831696, 47.924946594836499 ], [ -3.626464176910988, 47.925368358292616 ], [ -3.626922375644516, 47.925847017586328 ], [ -3.627419307855642, 47.926418608540096 ], [ -3.627947491727994, 47.927122485074925 ], [ -3.628385865564589, 47.927973819946523 ], [ -3.628697324663207, 47.928673426364554 ], [ -3.628866566511435, 47.929308785887123 ], [ -3.629008474723402, 47.930031389215678 ], [ -3.629074880233882, 47.930840288678453 ], [ -3.62900035841538, 47.931549855146571 ], [ -3.628928112323318, 47.932198019406322 ], [ -3.62864007653813, 47.933140395586676 ], [ -3.628309392940277, 47.933932702809713 ], [ -3.627796427795035, 47.934765311774392 ], [ -3.627352129861134, 47.93537103777301 ], [ -3.626810499548038, 47.936001179807064 ], [ -3.626061187618006, 47.936706231501944 ], [ -3.62526792059542, 47.937296295223 ], [ -3.624503289572551, 47.937764023016328 ], [ -3.623586795064679, 47.938263863017603 ], [ -3.622740768052825, 47.93865096919891 ], [ -3.621983607148977, 47.938916927962168 ], [ -3.621105837102947, 47.939184888774875 ], [ -3.620144568188682, 47.939429247215188 ], [ -3.619404985654588, 47.939546305325862 ], [ -3.618496784476502, 47.939660024313007 ], [ -3.617542039463228, 47.939728923638782 ], [ -3.616951229916594, 47.939734790668901 ], [ -3.616636449991233, 47.939772452631267 ], [ -3.615703824323544, 47.93989444330866 ], [ -3.614882211416186, 47.939948398701631 ], [ -3.613786533864041, 47.939917912398684 ], [ -3.612979585580006, 47.939901917713215 ], [ -3.61199656973305, 47.939759528942815 ], [ -3.610894760221416, 47.939570882400261 ], [ -3.609928067049693, 47.93931468076611 ], [ -3.60894123631748, 47.938952730856755 ], [ -3.608015622311107, 47.938565653391237 ], [ -3.607247902601315, 47.938146593503205 ], [ -3.606705239899991, 47.937832953645682 ], [ -3.606013418021144, 47.937318832716834 ], [ -3.605475210962306, 47.936886768264515 ], [ -3.605068171579879, 47.936492424479496 ], [ -3.604558344040742, 47.935946802394632 ], [ -3.604202781372575, 47.935465697077319 ], [ -3.603847883066954, 47.93496704730029 ], [ -3.603623486551302, 47.934523664892978 ], [ -3.603332764092094, 47.933920952114725 ], [ -3.603096145668107, 47.933161307390854 ], [ -3.603004887643134, 47.932703019325416 ], [ -3.602931601386879, 47.932087080439537 ], [ -3.602890305077167, 47.931261100646545 ], [ -3.603034908490773, 47.930298372427593 ], [ -3.603281956099259, 47.92949569384934 ], [ -3.603780692105611, 47.928408345537335 ], [ -3.604100820624684, 47.927905581990473 ], [ -3.604454764095292, 47.927464938629051 ], [ -3.604546097599194, 47.926957619263803 ], [ -3.60472576397199, 47.926504727766499 ], [ -3.605067125844695, 47.925756594835192 ], [ -3.605574748557353, 47.925073217354402 ], [ -3.606077427113396, 47.924521412894386 ], [ -3.606599575161806, 47.924092888652645 ], [ -3.607465752025291, 47.923486860198445 ], [ -3.608338038901562, 47.923038954394052 ], [ -3.609157225854122, 47.922721659980809 ], [ -3.610015427059825, 47.922488527159139 ], [ -3.61088954936324, 47.922312761946287 ], [ -3.611760714982817, 47.922215934763912 ], [ -3.612592806641653, 47.922197329238401 ], [ -3.61332243353895, 47.922018678610051 ], [ -3.614521952214953, 47.921840557715342 ], [ -3.615483406140764, 47.921745490084746 ], [ -3.616653270053549, 47.921715987228616 ], [ -3.617951651288661, 47.921794352465575 ], [ -3.618587495454459, 47.921868377874908 ], [ -3.619133039259119, 47.921940613959876 ] ] ] ] } }
]
}
