{
"type": "FeatureCollection",
"name": "rs_hydro_sim",
"crs": { "type": "name", "properties": { "name": "urn:ogc:def:crs:OGC:1.3:CRS84" } },
"features": [
{ "type": "Feature", "properties": { "ID": "COURDEAU0000002000804226", "CODE_HYDRO": "06C0000002000804226", "TOPONYME": "Poga", "STATUT_TOP": "Validé", "IMPORTANCE": "5", "DATE_CREAT": "2017-01-24 16:06:18", "DATE_MAJ": "2022-07-27 21:56:55", "DATE_APP": null, "DATE_CONF": null, "SOURCE": null, "ID_SOURCE": null, "STATUT": "Validé", "MAREE": null, "PERMANENT": null, "COMMENT": null }, "geometry": { "type": "MultiLineString", "coordinates": [ [ [ -3.558651196592026, 48.008805494359542 ], [ -3.558709595879306, 48.008768725505618 ], [ -3.558969623912911, 48.008632963068933 ], [ -3.559129215995785, 48.008535025424422 ], [ -3.559280621926963, 48.008430792455798 ], [ -3.559353280169509, 48.00834796276547 ], [ -3.559405240769412, 48.008255520770831 ], [ -3.559433583741407, 48.008174863999443 ], [ -3.55943707803514, 48.008082978781459 ], [ -3.559425955973494, 48.007987734098506 ], [ -3.559381158938279, 48.007891811405301 ], [ -3.559308942844688, 48.007796869228144 ], [ -3.559203284929291, 48.007695123300977 ], [ -3.559066522973663, 48.007580490267557 ], [ -3.558940342973276, 48.007464537624188 ], [ -3.558837256452785, 48.00735058252566 ], [ -3.55868879166616, 48.007156018738499 ], [ -3.558624696553337, 48.007013729474195 ], [ -3.558575683786778, 48.006862548377654 ], [ -3.5585503467086, 48.006698050747303 ], [ -3.558552545017831, 48.006529509880536 ], [ -3.558580698173031, 48.006343100622033 ], [ -3.558602952669458, 48.006201017749078 ], [ -3.5586071972738, 48.006034050720146 ], [ -3.558597590754003, 48.005898989184359 ], [ -3.558571787885967, 48.005746742971141 ], [ -3.558522018572679, 48.005615470379666 ], [ -3.558463830852967, 48.005484028236467 ], [ -3.55842114054039, 48.005388147797078 ], [ -3.558395695127885, 48.005281886523036 ], [ -3.558386737279939, 48.005185152857862 ], [ -3.55838725403111, 48.005116196657511 ], [ -3.558409807328877, 48.005021630224903 ], [ -3.558462509189409, 48.004798933328786 ], [ -3.558455706625979, 48.00464553722837 ], [ -3.55842990430932, 48.004493291074922 ], [ -3.558386143346296, 48.0042594559268 ], [ -3.55833109479172, 48.003990143865551 ], [ -3.558259442780455, 48.003714367040715 ], [ -3.558228892667458, 48.003465472093623 ], [ -3.558211909723551, 48.003247502228405 ], [ -3.558227959373736, 48.003047056192912 ], [ -3.558271783706967, 48.002891614695557 ], [ -3.55834379041626, 48.002770457791954 ], [ -3.558452339521219, 48.002685286406773 ], [ -3.558567734019193, 48.002641632747498 ], [ -3.558671615352059, 48.002623801178274 ], [ -3.558821273057259, 48.002620684716533 ], [ -3.558972037354725, 48.002588471217734 ], [ -3.55911110595895, 48.002531500656588 ], [ -3.559239294115627, 48.002428333228906 ], [ -3.559705286123553, 48.00208215518829 ], [ -3.56015993693521, 48.001757204017949 ], [ -3.560899379480322, 48.001309246707493 ], [ -3.561320126463883, 48.001044914053594 ], [ -3.56179605466591, 48.00076943020656 ], [ -3.562019058049747, 48.000665103747124 ], [ -3.56217804251311, 48.00052730462626 ], [ -3.562268634256078, 48.00041571590566 ], [ -3.562396292626101, 48.000326329124746 ], [ -3.562511275284221, 48.000293392959264 ], [ -3.562604863517119, 48.000269221829782 ], [ -3.562711660671126, 48.000229990518463 ], [ -3.562856164614146, 48.000196115452439 ], [ -3.562993365867156, 48.000188147347501 ], [ -3.563172133981532, 48.000194808547235 ], [ -3.563436547704518, 48.000220050693045 ], [ -3.56366852118647, 48.000267628806753 ], [ -3.563910901197799, 48.000318481085387 ], [ -3.564124806800751, 48.000342706457474 ], [ -3.564360513819066, 48.000347446355761 ], [ -3.564613987518989, 48.000328021813374 ], [ -3.565278599655193, 48.000296939158474 ], [ -3.565844403186881, 48.000205629774271 ], [ -3.566072551945035, 48.000132053697982 ], [ -3.566234878919062, 48.000072480294222 ], [ -3.566390310887843, 48.000028094034434 ], [ -3.566569054664555, 47.999924405310779 ], [ -3.566698626411557, 47.999784478807271 ], [ -3.566668881930321, 47.999569319133343 ], [ -3.56658359456507, 47.999319326376209 ], [ -3.566583720342769, 47.999094038924198 ], [ -3.566694047681989, 47.998906215616344 ], [ -3.566847987786394, 47.998734594535861 ], [ -3.56712970765732, 47.998525693808475 ], [ -3.567448971042428, 47.998381915564948 ], [ -3.567698798321186, 47.9982919147931 ], [ -3.56790174552877, 47.998216297725307 ], [ -3.568164676656571, 47.998169471945303 ], [ -3.568423921395047, 47.998108778495848 ], [ -3.568685676903447, 47.998037407036705 ], [ -3.568899377545085, 47.997955874563402 ], [ -3.569028782631672, 47.997875714059859 ], [ -3.569101192460167, 47.997799006568684 ], [ -3.569140046772972, 47.997718559986154 ], [ -3.569145113328378, 47.997640500000415 ], [ -3.569119658284138, 47.997534240547196 ], [ -3.569072041543432, 47.997401482096208 ], [ -3.56894670709931, 47.997152219024628 ], [ -3.568638250680173, 47.996511534346709 ], [ -3.568551870523326, 47.996345812947922 ], [ -3.568420283534971, 47.996094891399565 ], [ -3.56821621704284, 47.995867035085226 ], [ -3.568082320732471, 47.995732543169183 ], [ -3.56793136989336, 47.995659011814737 ], [ -3.567663268645902, 47.995564735635355 ], [ -3.566968119602335, 47.995346934148742 ], [ -3.566858038172938, 47.995306407416223 ], [ -3.566245023056465, 47.995088721134977 ], [ -3.565836510657728, 47.994976294193108 ], [ -3.565402978830827, 47.994857233013775 ], [ -3.565229824486248, 47.994813904678793 ], [ -3.565072215135608, 47.99474943257043 ], [ -3.564952369004168, 47.99468878478217 ], [ -3.564874611106463, 47.9946289831869 ], [ -3.564804678311811, 47.994529491756708 ], [ -3.564752336768065, 47.994410430450188 ], [ -3.564721737088232, 47.994273415328323 ], [ -3.564695625938058, 47.994073654592015 ], [ -3.564702988489574, 47.993768818800262 ], [ -3.564803934587665, 47.993162413639055 ], [ -3.564965405051158, 47.992681364644938 ], [ -3.565063312102516, 47.992376817004569 ], [ -3.565157776995465, 47.992107449513611 ], [ -3.565206305989651, 47.991883135864441 ], [ -3.565245022099128, 47.991695406866569 ], [ -3.565262578412632, 47.99151031761204 ], [ -3.565251220015257, 47.99142119958492 ], [ -3.565200751371814, 47.991308306514597 ], [ -3.565145085824347, 47.991221362807408 ], [ -3.56482498616356, 47.990888486957658 ], [ -3.564770193355127, 47.990778571989225 ], [ -3.564753103978871, 47.990674012907505 ], [ -3.564779136444496, 47.990487561625301 ], [ -3.564899634574225, 47.989754346391038 ], [ -3.564986330998524, 47.989523137597317 ], [ -3.565171429481, 47.989140649439875 ], [ -3.565280469331159, 47.988986518774666 ], [ -3.565374674074793, 47.988890327785029 ], [ -3.565467425325313, 47.988832421997174 ], [ -3.565861006732428, 47.988671750871333 ], [ -3.565977439438513, 47.988655700519672 ], [ -3.566126901181618, 47.988657172388727 ], [ -3.566329621149825, 47.988698029105251 ], [ -3.566535968688362, 47.988754284289797 ], [ -3.56688039771425, 47.988889943260446 ], [ -3.567145213511845, 47.989014806235033 ], [ -3.567311755067953, 47.989065662866651 ], [ -3.567458764563667, 47.989076279836624 ], [ -3.567886644669382, 47.98912165906961 ], [ -3.568344114521063, 47.989219739392539 ], [ -3.568450213481365, 47.989254054947466 ], [ -3.568542989756349, 47.989306493747748 ], [ -3.568644196608004, 47.989414274657136 ], [ -3.569056295460979, 47.989931368169493 ], [ -3.569138971286837, 47.990028048563289 ], [ -3.569552311409267, 47.99034593074316 ], [ -3.569653042029482, 47.99041078934647 ], [ -3.569771536375018, 47.990451483360417 ], [ -3.569934860183964, 47.990476219134791 ], [ -3.570135002562584, 47.990474107650897 ], [ -3.57044561442837, 47.990446627543022 ], [ -3.570710990556377, 47.990445825164187 ], [ -3.571024765969893, 47.990445994001789 ], [ -3.571213632114397, 47.990463578497867 ], [ -3.571591089388369, 47.990561577075283 ], [ -3.572040341710828, 47.990710058222632 ], [ -3.572408033460319, 47.990787935611934 ], [ -3.572743406638235, 47.990885087296689 ], [ -3.573163043382771, 47.991092741955001 ], [ -3.573430225535953, 47.991266685715402 ], [ -3.573777148328991, 47.991670582730706 ], [ -3.573956762540192, 47.991821313055112 ], [ -3.574286001736028, 47.991913741108888 ], [ -3.574587694343929, 47.99195504105974 ], [ -3.57504966586781, 47.991990359092298 ], [ -3.57540981708825, 47.992045090536038 ], [ -3.575741203429369, 47.992080853647479 ], [ -3.576109929177871, 47.99207598510462 ], [ -3.576534701205559, 47.992036989969961 ], [ -3.576828057793242, 47.99196470844457 ], [ -3.577098903563055, 47.991875116973588 ], [ -3.577344478441705, 47.991729845929314 ], [ -3.577540301614007, 47.991563654120114 ], [ -3.577731357100801, 47.991300814283164 ], [ -3.577900867668663, 47.990939457732424 ], [ -3.577943151219106, 47.990656778421226 ], [ -3.577898675436337, 47.990329448619988 ], [ -3.577825066271759, 47.990104217640095 ], [ -3.577725547315926, 47.99000720379702 ], [ -3.577412837771218, 47.989867603296602 ], [ -3.577259650601325, 47.989741927320324 ], [ -3.577155775488346, 47.989370494876596 ], [ -3.577022481046351, 47.988941767511093 ], [ -3.576993898120315, 47.988584104683099 ], [ -3.577016205558305, 47.988161561170017 ], [ -3.576945921316764, 47.987904212548329 ], [ -3.576787757988521, 47.987743187263561 ], [ -3.576613960418168, 47.987494491726636 ], [ -3.576575062974128, 47.987409420449126 ], [ -3.576569044633233, 47.987234586359705 ], [ -3.576611936915991, 47.986657665781109 ], [ -3.576686699692861, 47.986128893951701 ], [ -3.576798463999173, 47.985790902948594 ], [ -3.576940533782711, 47.985542408594654 ], [ -3.577162233205911, 47.985359878199077 ], [ -3.577394413130641, 47.985234262791479 ], [ -3.577708616935887, 47.985166996011003 ], [ -3.578285324585139, 47.985118781626412 ], [ -3.578670220459365, 47.985131090796315 ], [ -3.579168801494617, 47.985144143900811 ], [ -3.579588098754144, 47.985249094569269 ], [ -3.579831125087978, 47.985226375723002 ], [ -3.58013642737321, 47.985116014564227 ], [ -3.581003687561767, 47.985069012443049 ], [ -3.581402192791018, 47.985055534687149 ], [ -3.581622245598263, 47.985027755875024 ], [ -3.581895982202214, 47.984916759980507 ], [ -3.582047906041938, 47.984797195263923 ], [ -3.582313682481631, 47.984506728695393 ], [ -3.582507820350132, 47.98427306575698 ], [ -3.582784446766259, 47.98408549797216 ], [ -3.583632787549774, 47.983814349938569 ], [ -3.584209591568857, 47.983596004030375 ], [ -3.584560263622637, 47.983399186987228 ], [ -3.584844063522816, 47.983188771270051 ], [ -3.585166835718032, 47.98295001578056 ], [ -3.585314139461847, 47.982841084198085 ], [ -3.585404017402592, 47.98280303482727 ], [ -3.585666516954321, 47.982822077249281 ], [ -3.585819877519227, 47.982943151652961 ], [ -3.585895927687827, 47.983104059441942 ], [ -3.586123801951552, 47.98320363497848 ], [ -3.586323582289348, 47.983210694440416 ], [ -3.58642098650093, 47.983140611107189 ], [ -3.586487763963543, 47.982933516860143 ], [ -3.586486189840294, 47.982528887417473 ], [ -3.586343174806148, 47.981854763477926 ], [ -3.586337705326239, 47.981497565910573 ], [ -3.586366746462822, 47.981341824674715 ], [ -3.586508519875326, 47.981156153365319 ], [ -3.586667900523787, 47.981006083008921 ], [ -3.586800794061537, 47.980832494533018 ], [ -3.586828308082165, 47.980661397091822 ], [ -3.58678033949658, 47.980425955468249 ], [ -3.586646680869454, 47.980173475101552 ], [ -3.58659574191607, 47.979960962575191 ], [ -3.586569774296539, 47.979644734792714 ], [ -3.586649760719585, 47.979031774992706 ], [ -3.586724497727338, 47.978446296564869 ], [ -3.58669708524962, 47.978168354242854 ], [ -3.586562586392201, 47.977994018004807 ], [ -3.586352388717577, 47.977928512849303 ], [ -3.585954803336581, 47.977974202910843 ], [ -3.585813912433797, 47.978025025376738 ], [ -3.585619472107714, 47.978044125566072 ], [ -3.585467517534997, 47.978053347258893 ], [ -3.585159875316165, 47.977947577806674 ], [ -3.58483103273517, 47.977734104202128 ], [ -3.584829622558614, 47.977715685210995 ], [ -3.584708076507728, 47.977477238920031 ], [ -3.584672889950141, 47.977182282570041 ], [ -3.584648802011928, 47.976872222606744 ], [ -3.584580423108036, 47.976731391384135 ], [ -3.584379482138539, 47.976420858745371 ], [ -3.584175868462356, 47.976292647620156 ], [ -3.583689629930608, 47.975898245540122 ], [ -3.583483371983786, 47.975728601489067 ], [ -3.583307828677249, 47.975637732623738 ], [ -3.583144757644314, 47.9756068831975 ], [ -3.58291983937348, 47.975541079467874 ], [ -3.582732214864693, 47.975491347507642 ], [ -3.582668416021044, 47.975396584186171 ], [ -3.582673044430449, 47.97527407165974 ], [ -3.582725717545737, 47.975161716104424 ], [ -3.583050173911259, 47.975100776697062 ], [ -3.583381086768068, 47.974813146451439 ], [ -3.583565008279597, 47.974514911675584 ], [ -3.583793935975338, 47.974084244272788 ], [ -3.584102878254119, 47.973820694377309 ], [ -3.584417379000175, 47.973577178543039 ], [ -3.584577653411274, 47.973347435271961 ], [ -3.584878361818183, 47.9729672447979 ], [ -3.585066910454912, 47.972713545774582 ], [ -3.585374145720166, 47.972439231983685 ], [ -3.586041555997376, 47.971882466332175 ], [ -3.58678149764317, 47.971356267329824 ], [ -3.587119266080735, 47.971165319681489 ], [ -3.587533722171576, 47.971006555577588 ], [ -3.587989412647103, 47.970926775273497 ], [ -3.588268052306746, 47.970907823114771 ], [ -3.588489399867258, 47.970844813962728 ], [ -3.58870383324422, 47.970741819838082 ], [ -3.589182606676207, 47.970664030458593 ], [ -3.590016880394334, 47.970594874055507 ], [ -3.590349206427532, 47.970659749381426 ], [ -3.59070118022495, 47.970873674734619 ], [ -3.590981680366577, 47.971084639518494 ], [ -3.591258089326389, 47.971292457057245 ], [ -3.591985678262462, 47.97176368721334 ], [ -3.592119721203092, 47.971838393565832 ], [ -3.59244377926488, 47.971955206999283 ], [ -3.592621601471378, 47.972041514816127 ], [ -3.592707312533996, 47.972113723410828 ], [ -3.592906490049693, 47.972247966551123 ], [ -3.59301704490363, 47.972331398784206 ], [ -3.593099183227053, 47.972386677734093 ], [ -3.593184029610759, 47.972481857238023 ], [ -3.593269537910897, 47.972615363899578 ], [ -3.593396833769799, 47.972869244117248 ], [ -3.593607411511104, 47.973595282080893 ], [ -3.593553248962973, 47.973859334126601 ], [ -3.593552207661769, 47.973998776325246 ], [ -3.593545519297021, 47.974064542945868 ], [ -3.593561397817728, 47.974146085508977 ], [ -3.593589866970741, 47.974396460973196 ], [ -3.593613296264956, 47.974501142628014 ], [ -3.593646122163691, 47.974579958263305 ], [ -3.593683732913648, 47.974643543769048 ], [ -3.593748868604909, 47.974703080833976 ], [ -3.593821123868189, 47.974741304091339 ], [ -3.593949898525661, 47.974788317884617 ], [ -3.594116891203455, 47.974826898770544 ], [ -3.594277514363827, 47.974866884982177 ], [ -3.594402081419688, 47.974913814506692 ], [ -3.594512266653838, 47.974951261661346 ], [ -3.594578844768536, 47.974972513189698 ], [ -3.594681363826182, 47.974989884014903 ], [ -3.594755896658553, 47.975023554654214 ], [ -3.594866658792737, 47.975045687497413 ], [ -3.595023593579534, 47.975071806429355 ], [ -3.595187993624185, 47.975067422924667 ], [ -3.595340288584426, 47.975049004785504 ], [ -3.595507830346104, 47.975017097575844 ], [ -3.595727251496566, 47.974949443446874 ], [ -3.595913210076824, 47.974931696216728 ], [ -3.596123436561091, 47.974940486263435 ], [ -3.596335219583535, 47.975019804868865 ], [ -3.59654293883353, 47.975039272358558 ], [ -3.596713420204616, 47.975041138995664 ], [ -3.596905690769705, 47.975023516616318 ], [ -3.597071358499767, 47.974985440397617 ], [ -3.597210480949325, 47.97492537900122 ], [ -3.597335393903513, 47.974851241202302 ], [ -3.597452985548687, 47.974747838748385 ], [ -3.597554551741713, 47.97462266094864 ], [ -3.597637700389258, 47.974483322946867 ], [ -3.597794716790214, 47.974227450262831 ], [ -3.597908212487376, 47.974009024007685 ], [ -3.598014559306332, 47.973756738933304 ], [ -3.598132234214046, 47.973595100568716 ], [ -3.598259391566362, 47.973461237187649 ], [ -3.598350580857806, 47.973387959233435 ], [ -3.598504255157851, 47.973332784653905 ], [ -3.598600373513194, 47.973296386214628 ], [ -3.598682543164321, 47.973294958595716 ], [ -3.598807771238898, 47.97326833549721 ], [ -3.598917692391683, 47.973144856141218 ], [ -3.598967449769565, 47.972549682648818 ], [ -3.598965427425405, 47.97237952846011 ], [ -3.598960264380715, 47.972236897732998 ], [ -3.59894657041651, 47.972097162134617 ], [ -3.598968758522247, 47.97195507644436 ], [ -3.599058932980017, 47.971740782748114 ], [ -3.599151759823124, 47.971567920922865 ], [ -3.59953093822528, 47.97105900438325 ], [ -3.599983523277734, 47.970669556455533 ], [ -3.600308697760373, 47.97047680185905 ], [ -3.600491213980931, 47.970382353879685 ], [ -3.600657678449573, 47.970322834793947 ], [ -3.600815036314009, 47.970281524854087 ], [ -3.600942824377902, 47.970242690973507 ], [ -3.601113438559307, 47.970184786693451 ], [ -3.60137189801548, 47.970142424637643 ], [ -3.601536404608888, 47.970134972673989 ], [ -3.601713361874762, 47.970132366151006 ], [ -3.601943376870817, 47.970118555456736 ], [ -3.602188464332675, 47.970095849235435 ], [ -3.602539609421011, 47.97005226576826 ], [ -3.60288893798337, 47.970000982707205 ], [ -3.60352470743803, 47.969891032801925 ], [ -3.603735408391939, 47.969830858863972 ], [ -3.603905732605355, 47.969780609062738 ], [ -3.604021010508358, 47.969738459031873 ], [ -3.604117353346648, 47.969695932138492 ], [ -3.604220467870186, 47.969641279512473 ], [ -3.604303751228412, 47.969554048592187 ], [ -3.604370548469012, 47.969457294277461 ], [ -3.604410282721227, 47.969352338684786 ], [ -3.604382980430804, 47.969238386444189 ], [ -3.604275812672462, 47.969064607972655 ], [ -3.604180094028702, 47.968978412830594 ], [ -3.604066073425692, 47.968874995345331 ], [ -3.604008742387208, 47.968775771030892 ], [ -3.603961528154013, 47.968687475903508 ], [ -3.60397310708958, 47.96860341588274 ], [ -3.604011633561244, 47.968530619999186 ], [ -3.604099205616889, 47.968385237544908 ], [ -3.604213552373121, 47.968255713388388 ], [ -3.604304583924547, 47.968130322895519 ], [ -3.60437293299559, 47.967992220605112 ], [ -3.604413241755486, 47.967871950990983 ], [ -3.604477536336477, 47.967505417650671 ], [ -3.604527851231697, 47.967118683011904 ], [ -3.604547950243442, 47.966919851130911 ], [ -3.604554563631755, 47.966743739218245 ], [ -3.604580489962807, 47.966613988158016 ], [ -3.60463097194446, 47.966503116314598 ], [ -3.604713389692273, 47.966438856440362 ], [ -3.604835032257687, 47.966395300129861 ], [ -3.604926186297511, 47.966378723090486 ], [ -3.605086593664268, 47.966368121448255 ], [ -3.60537925379413, 47.966367813390676 ], [ -3.606109967169675, 47.966363957480198 ], [ -3.606597155297234, 47.966341463014047 ], [ -3.606844910749777, 47.966303478405692 ], [ -3.607428458698497, 47.966181749503193 ], [ -3.607673442265385, 47.966105394920575 ], [ -3.607827789346662, 47.966031835853073 ], [ -3.608043433843542, 47.96595183243663 ], [ -3.608287116832366, 47.965853995508866 ], [ -3.608381465084211, 47.965808361825864 ], [ -3.608486159923281, 47.965767531401141 ], [ -3.608602637444195, 47.965693219005047 ], [ -3.60866175935946, 47.965576387727936 ], [ -3.608648777644601, 47.965473448854695 ], [ -3.6085708081201, 47.96536308809803 ], [ -3.608493872783361, 47.965225161967211 ], [ -3.608497491820519, 47.965128683257106 ], [ -3.608588227757678, 47.965010947858246 ], [ -3.609316739596669, 47.964784816038133 ], [ -3.609448667242257, 47.964747591384167 ], [ -3.609568546386032, 47.964694801733955 ], [ -3.609679780580613, 47.964647970430221 ], [ -3.609785105306559, 47.964590293800242 ], [ -3.609888383554722, 47.964531043903477 ], [ -3.609975348269103, 47.964457676886283 ], [ -3.610026261602443, 47.964391256301141 ], [ -3.610095289022463, 47.964234775215246 ], [ -3.610120805410751, 47.964115743369874 ], [ -3.610121342915954, 47.964045256809413 ], [ -3.610106600619775, 47.963933087860866 ], [ -3.610077800302509, 47.963858953323196 ], [ -3.610024214265286, 47.963772065942493 ], [ -3.609960052110312, 47.963686500961515 ], [ -3.609902373603306, 47.963596467138302 ], [ -3.609867147430201, 47.963525269993696 ], [ -3.609844543828229, 47.963454323647753 ], [ -3.609839976155264, 47.963351552151977 ], [ -3.609866045966165, 47.963273910182949 ], [ -3.609915256961524, 47.963196728010558 ], [ -3.610055983287958, 47.963037073971151 ], [ -3.610317483626852, 47.962856831086441 ], [ -3.610505770485779, 47.962776281564302 ], [ -3.610648558122764, 47.962730076606277 ], [ -3.610832616670452, 47.962706147028626 ], [ -3.611048345993954, 47.962679781257137 ], [ -3.611332293131039, 47.962686953657055 ], [ -3.61170517122981, 47.962680566296228 ], [ -3.612143265143387, 47.96267547319674 ], [ -3.612548196302667, 47.962712631933243 ], [ -3.61282787879153, 47.962721249902501 ], [ -3.613170157170509, 47.962744903008087 ], [ -3.613553381974246, 47.962743314952519 ], [ -3.61424220192468, 47.962620589771007 ], [ -3.614511154405005, 47.962578418217205 ], [ -3.615401449811271, 47.962360071325875 ], [ -3.615835982670415, 47.962281336653803 ], [ -3.616420854032968, 47.962179529590415 ], [ -3.616732165493465, 47.962130532273477 ], [ -3.617037492591868, 47.962128924667681 ], [ -3.617281181205533, 47.962142952308326 ], [ -3.617515194327169, 47.962190503772533 ], [ -3.617722145673952, 47.962229855658435 ], [ -3.617881939414134, 47.962347964708457 ], [ -3.618025934953343, 47.962438174601218 ], [ -3.618123419373772, 47.962533592493017 ], [ -3.618206750726196, 47.962613404306623 ], [ -3.618277688933275, 47.962686840221139 ], [ -3.618328105434566, 47.962746076387205 ], [ -3.618391430899013, 47.962797905711994 ], [ -3.61847875692662, 47.96282722259572 ], [ -3.618646769990034, 47.96283821573725 ], [ -3.618850661305096, 47.9628468547739 ], [ -3.619068763362666, 47.962869568142835 ], [ -3.619193498863202, 47.96291188648226 ], [ -3.619337053642959, 47.962957642790343 ], [ -3.619472365382043, 47.962998637994389 ], [ -3.619595570174039, 47.963025600272516 ], [ -3.619667498498805, 47.963016297827096 ], [ -3.619753080114656, 47.962979680096609 ], [ -3.619771528721698, 47.962880430249683 ], [ -3.61977825596689, 47.962813131580234 ], [ -3.61979221069953, 47.962721455413558 ], [ -3.61982641618853, 47.962594932002318 ], [ -3.619903498026779, 47.962447802575824 ], [ -3.620006626112931, 47.962279733607261 ], [ -3.620052582290898, 47.962007851312549 ], [ -3.620195267008016, 47.961682714035874 ], [ -3.620342414865033, 47.961463410661821 ], [ -3.620452840389419, 47.961212728776317 ], [ -3.620457393069502, 47.960978339813281 ], [ -3.620528076482702, 47.960720740382669 ], [ -3.620663673141148, 47.96052879380639 ], [ -3.620774339352562, 47.960440566188097 ], [ -3.621001938954974, 47.960434347186506 ], [ -3.621327482002267, 47.960511292751889 ], [ -3.621669211493368, 47.960662120382352 ], [ -3.621982364330248, 47.9609579730121 ], [ -3.622244814788658, 47.961202247150979 ], [ -3.622376075939018, 47.961295266472817 ], [ -3.622559815751661, 47.961392389922878 ], [ -3.622773593560001, 47.96141807841191 ], [ -3.622959164928372, 47.961466196344915 ], [ -3.623108515571553, 47.961525857339041 ], [ -3.623213745513604, 47.961583112197218 ], [ -3.62345188438764, 47.961745678502183 ], [ -3.623783121579866, 47.962064874183099 ], [ -3.623861620454836, 47.962161445665899 ], [ -3.623898216419776, 47.962252590083423 ], [ -3.623903370825867, 47.962340047072885 ], [ -3.62388555573947, 47.962422451787745 ], [ -3.623856033439874, 47.962480104080811 ], [ -3.623648169413298, 47.962690545648087 ], [ -3.623470214629326, 47.962889318746122 ], [ -3.623373816633555, 47.962990090886223 ], [ -3.623321883274722, 47.963084080515117 ], [ -3.623286264929074, 47.963192186015405 ], [ -3.623270552923191, 47.963274632347904 ], [ -3.62324908862256, 47.963398343497303 ], [ -3.623183806298052, 47.963680571792509 ], [ -3.623128457094264, 47.964035026351809 ], [ -3.623123725820359, 47.964330713814704 ], [ -3.623128967678205, 47.964528515877944 ], [ -3.62314701710981, 47.964665269709627 ], [ -3.623175198197528, 47.964756247770438 ], [ -3.623227150373974, 47.964830838423779 ], [ -3.623296047378151, 47.964902699418914 ], [ -3.623414920582949, 47.964989342613151 ], [ -3.62354289568867, 47.965057775359824 ], [ -3.623731194554028, 47.965145792610926 ], [ -3.623967595087691, 47.96524242445615 ], [ -3.62421133707412, 47.965311615478285 ], [ -3.624425066680554, 47.965338833511382 ], [ -3.624603603724998, 47.965350029417905 ], [ -3.624818362939942, 47.965349681558479 ], [ -3.624951302684874, 47.965341584304994 ], [ -3.625105852262239, 47.965318589090501 ], [ -3.625235270539881, 47.965292031419395 ], [ -3.62535877761932, 47.965254628892907 ], [ -3.625473126080497, 47.96523696816881 ], [ -3.625586845546416, 47.965236152921861 ], [ -3.625724838607606, 47.965261871071334 ], [ -3.626046079482455, 47.965341788064222 ], [ -3.626250536949054, 47.965391808726338 ], [ -3.626537271599171, 47.965437326330914 ], [ -3.626767775397532, 47.965466405950863 ], [ -3.626955471191876, 47.965457857634064 ], [ -3.627091257715469, 47.965429892063753 ], [ -3.627212717609512, 47.965390915277382 ], [ -3.62735356882147, 47.965340061510076 ], [ -3.627502320758842, 47.965303156760783 ], [ -3.627603474627239, 47.965300559261408 ], [ -3.627748694014627, 47.965301898068304 ], [ -3.627838928874862, 47.965309812355812 ], [ -3.628035829073797, 47.965336693445622 ], [ -3.628242505621702, 47.965383690667394 ], [ -3.628693327895825, 47.96548915287056 ], [ -3.629077904890347, 47.965620890430756 ], [ -3.629489880067849, 47.965808340213997 ], [ -3.629928416155026, 47.96596106540531 ], [ -3.630494192729213, 47.966202125929982 ], [ -3.631201767790817, 47.966536405795154 ], [ -3.631532451850547, 47.966645617980632 ], [ -3.631737029009246, 47.966692569764675 ], [ -3.631862516903371, 47.966714971204397 ], [ -3.631994316354898, 47.966737497203951 ], [ -3.632128562158015, 47.966750876157775 ], [ -3.632282084946666, 47.966755440420926 ], [ -3.632389551690586, 47.96675296493369 ], [ -3.632571280375363, 47.966735097775256 ], [ -3.632741070793375, 47.966698604200943 ], [ -3.632917400836146, 47.966656109417926 ], [ -3.633212572335988, 47.966588374930112 ], [ -3.633648871151314, 47.96651882824591 ], [ -3.634164544371012, 47.966466172612925 ], [ -3.634301407305492, 47.966465808757533 ], [ -3.634467267523007, 47.966478277419938 ], [ -3.634602590466186, 47.966519261600325 ], [ -3.634743369487556, 47.966583341490065 ], [ -3.634949532250759, 47.966700817939426 ], [ -3.635199128501878, 47.96689577830081 ], [ -3.635294644317565, 47.96698808296135 ], [ -3.635386579908377, 47.967063458962684 ], [ -3.635456570873977, 47.967106218553212 ], [ -3.635575292440352, 47.967140744289622 ], [ -3.635684065076849, 47.967159748241272 ], [ -3.635856523269839, 47.967164683089422 ], [ -3.636070716278646, 47.967179636325298 ], [ -3.636425923978949, 47.967195838299972 ], [ -3.636655870162029, 47.967183515816373 ], [ -3.636813658533592, 47.967186627886051 ], [ -3.636976680615708, 47.967162257276314 ], [ -3.637166539612142, 47.967152208650546 ], [ -3.637416270181667, 47.967173991314581 ], [ -3.637576841473114, 47.967215471164209 ], [ -3.6377294534236, 47.967244533595505 ], [ -3.637976677015559, 47.967333697917582 ], [ -3.638218159318664, 47.967407423292684 ], [ -3.638350355639886, 47.967475928803935 ], [ -3.638486019149983, 47.967564425617155 ], [ -3.638546115026213, 47.967646835041506 ], [ -3.638605698225128, 47.967743027220777 ], [ -3.638660447100915, 47.967855982050935 ], [ -3.638721108874941, 47.96797978122008 ], [ -3.638782169612368, 47.968092860440237 ], [ -3.63884601802159, 47.96818760408253 ], [ -3.638928345614351, 47.968294972287381 ], [ -3.639050077269394, 47.968418442551325 ], [ -3.639224349144811, 47.968544480816973 ], [ -3.639426370625118, 47.968660338014757 ], [ -3.640155032818885, 47.968994998562835 ], [ -3.640586547872307, 47.96916748275396 ], [ -3.641226062481003, 47.969408430060511 ], [ -3.641620109576484, 47.969569445939229 ], [ -3.641857845397767, 47.969687536402688 ], [ -3.642089953147051, 47.969787125208526 ], [ -3.642263835051137, 47.969867176599735 ], [ -3.642419635834066, 47.969923883639837 ], [ -3.642638383283227, 47.969986427637963 ], [ -3.642931906012932, 47.970019792786573 ], [ -3.643428540837108, 47.970083209308854 ], [ -3.643813044355829, 47.970104571214549 ], [ -3.643940984659534, 47.970117817360929 ], [ -3.644213127774185, 47.970159954885517 ], [ -3.644540484819878, 47.970189385756427 ], [ -3.64483548704743, 47.970239634936007 ], [ -3.64513867774032, 47.970296174931008 ], [ -3.64559090548554, 47.970421546004232 ], [ -3.646242552047775, 47.970563099143192 ], [ -3.646706951184621, 47.9707009672006 ], [ -3.647018674425545, 47.970811310847978 ], [ -3.64722036799798, 47.970879644119705 ], [ -3.647388171607035, 47.970953440903855 ], [ -3.647574171977737, 47.971047518388161 ], [ -3.647788832120115, 47.971163614786519 ], [ -3.648007528941054, 47.971227683883029 ], [ -3.64819489428669, 47.971285006570739 ], [ -3.648362186481403, 47.97131588123716 ], [ -3.648523223785753, 47.971345100247959 ], [ -3.648859456388704, 47.971362437523666 ], [ -3.649426779679058, 47.971336807290626 ], [ -3.650120395828606, 47.971312124446072 ], [ -3.650398797352022, 47.97129920426454 ], [ -3.650619824554449, 47.971300481846072 ], [ -3.650950086261942, 47.971308502756926 ], [ -3.651269828323976, 47.971316316433729 ], [ -3.651579504931764, 47.971311671528113 ], [ -3.651828791727767, 47.971288982083365 ], [ -3.652017234475482, 47.971260499748226 ], [ -3.652267599549062, 47.97120871262824 ], [ -3.652526720663062, 47.97114790187473 ], [ -3.652779018848108, 47.971100749655065 ], [ -3.65301016393618, 47.971056246854658 ], [ -3.653524824840421, 47.970974398676361 ], [ -3.654192674789237, 47.97090628368214 ], [ -3.655054482520423, 47.97083124467548 ], [ -3.655975425787458, 47.970751231659321 ], [ -3.65627531784329, 47.9707264639637 ], [ -3.656503562770302, 47.97070335549698 ], [ -3.656776840480904, 47.97065814194255 ], [ -3.656969941946657, 47.970617485682311 ], [ -3.65715962901305, 47.970555306725089 ], [ -3.657330267147444, 47.970495819091255 ], [ -3.65747520453742, 47.970448087618962 ], [ -3.657734093691094, 47.970393395286493 ], [ -3.65796063029294, 47.970359523780857 ], [ -3.658233970180365, 47.970369480691261 ], [ -3.658506743468149, 47.970394751466216 ], [ -3.658776279746347, 47.970450609135725 ], [ -3.658994982166157, 47.970514665204348 ], [ -3.659146415851737, 47.97057586995102 ], [ -3.659361201991128, 47.970688890023183 ], [ -3.659512870656639, 47.97080067281523 ], [ -3.65971686280352, 47.970977847502624 ], [ -3.659968801312401, 47.971224925751031 ], [ -3.660153811271837, 47.971459964413796 ], [ -3.660358389068654, 47.971735232304738 ], [ -3.660500407153508, 47.971937244936967 ], [ -3.660608017686355, 47.972101802411075 ], [ -3.66073330977237, 47.972243718171001 ], [ -3.660869235315951, 47.972382777094182 ], [ -3.660984801082405, 47.972503046596728 ], [ -3.661088658117254, 47.97265526996064 ], [ -3.661214631103451, 47.972778808276217 ], [ -3.661357775968041, 47.97289348764798 ], [ -3.661557049213149, 47.973027656791587 ], [ -3.661784637266289, 47.973136327142939 ], [ -3.662137210152085, 47.973224456910501 ], [ -3.662472140107697, 47.973220288198718 ], [ -3.662829355080674, 47.973182839391598 ], [ -3.66307273819425, 47.973205995261338 ], [ -3.663350237932141, 47.973217558431543 ], [ -3.663590555279122, 47.973266706742066 ], [ -3.663822523877347, 47.973370862679332 ], [ -3.664046529647533, 47.973462602152154 ], [ -3.664521711232235, 47.973879557819359 ], [ -3.664745999670775, 47.974248691389974 ], [ -3.664922837034716, 47.97447743514752 ], [ -3.665098713622422, 47.974732213096871 ], [ -3.665227262062335, 47.974900242649042 ], [ -3.66545510743304, 47.975116191141453 ], [ -3.665465288214723, 47.975125585570069 ], [ -3.665622785228194, 47.975307974102606 ], [ -3.665778235347655, 47.975488789918842 ], [ -3.665971389100823, 47.975674940824973 ], [ -3.666313999079072, 47.975919186526895 ], [ -3.666585965746928, 47.976080825274721 ], [ -3.666971382535426, 47.97624928006924 ], [ -3.667382884837258, 47.976338552131281 ], [ -3.667905281159584, 47.976446849471557 ], [ -3.66846532566124, 47.976562011473291 ], [ -3.669534470819494, 47.976575246782204 ], [ -3.670424629679984, 47.976474636074656 ], [ -3.67115740494358, 47.976245278631737 ], [ -3.67193639432587, 47.975961649626527 ], [ -3.673042973304057, 47.975644567890726 ], [ -3.674208345268627, 47.975331692339893 ], [ -3.677303351210752, 47.974935380720382 ], [ -3.680047526843631, 47.974688499964373 ], [ -3.680426231285817, 47.97463917562537 ] ] ] } },
{ "type": "Feature", "properties": { "ID": "COURDEAU0000002215480660", "CODE_HYDRO": "06C0000002215480660", "TOPONYME": "Canal 1", "STATUT_TOP": "Validé", "IMPORTANCE": "4", "DATE_CREAT": "2020-10-21 09:35:44", "DATE_MAJ": "2020-11-12 10:46:00", "DATE_APP": null, "DATE_CONF": null, "SOURCE": null, "ID_SOURCE": null, "STATUT": "Validé", "MAREE": null, "PERMANENT": null, "COMMENT": null }, "geometry": { "type": "MultiLineString", "coordinates": [ [ [ -3.559721684073898, 48.010070351987622 ], [ -3.559859806087148, 48.009872362786282 ], [ -3.559903056946496, 48.009787408217704 ], [ -3.559926017476257, 48.009682121465758 ], [ -3.560146188608746, 48.00926509034889 ], [ -3.560386639384525, 48.00881321764048 ], [ -3.560614454218674, 48.008693663045662 ], [ -3.562678885226214, 48.007800321811899 ], [ -3.562919692268211, 48.0077821769232 ], [ -3.562919090271831, 48.007687144140775 ], [ -3.563896869264487, 48.007286879628325 ], [ -3.563976370948557, 48.007245565828413 ], [ -3.564135944989056, 48.007092450433802 ], [ -3.564428185261455, 48.006718244279483 ], [ -3.564574664514563, 48.006577125995136 ], [ -3.564686131248802, 48.006470553237364 ], [ -3.564748794671837, 48.006428900593818 ], [ -3.564902714272461, 48.006369158944239 ], [ -3.565025924827047, 48.006230637718645 ], [ -3.566515918530328, 48.005264403430118 ], [ -3.568055567138691, 48.004265438645817 ], [ -3.568156575527328, 48.004212294505749 ], [ -3.568236595797128, 48.004157196141307 ], [ -3.570210427270487, 48.002371523372418 ], [ -3.570702128563574, 48.001901695131906 ], [ -3.57144116076651, 48.001407710774927 ], [ -3.571558912831423, 48.001246087469255 ], [ -3.572350561072358, 48.000586104112188 ], [ -3.572545048786794, 48.000567017709017 ], [ -3.575812779837636, 48.000537533265387 ], [ -3.575949899419766, 48.000642965042644 ], [ -3.576230231639071, 48.000525977696924 ], [ -3.577694059841728, 47.999522353101085 ], [ -3.578946983431138, 47.998637100080856 ], [ -3.579221861679297, 47.99849701053104 ], [ -3.579318050522327, 47.998403917039923 ], [ -3.580293426025003, 47.997617312301614 ], [ -3.581370535491373, 47.996924694169763 ], [ -3.581877912478324, 47.996539444474465 ], [ -3.582274118142156, 47.996197946092792 ], [ -3.582490791577595, 47.995981590909565 ], [ -3.58263014191382, 47.995805067843477 ], [ -3.58267662856066, 47.995689522162863 ], [ -3.582795454621301, 47.99549879511197 ], [ -3.58500254826737, 47.992710745105583 ], [ -3.587584840507167, 47.989519443830815 ], [ -3.588144135652235, 47.989040197516317 ], [ -3.588674600800972, 47.988543515432198 ], [ -3.588910841797588, 47.988365859253221 ], [ -3.590942619512405, 47.986365056150959 ], [ -3.591091806889927, 47.986038532668729 ], [ -3.591490089682083, 47.985304721508129 ], [ -3.59178160944523, 47.985000962634771 ], [ -3.591883366684993, 47.984871193167976 ], [ -3.591982069547373, 47.984710711332951 ], [ -3.592142753020725, 47.984358363189486 ], [ -3.592402709411913, 47.98394209610899 ], [ -3.59247031362306, 47.983656855465668 ], [ -3.59295241148057, 47.982486401311021 ], [ -3.593181343650681, 47.982110893736106 ], [ -3.59323870539237, 47.982041540429279 ], [ -3.593371388358251, 47.981817368497261 ], [ -3.593657214044078, 47.981496635590361 ], [ -3.593832120777756, 47.981325413133064 ], [ -3.594012070296918, 47.981188007571262 ], [ -3.594083986753359, 47.98112354213761 ], [ -3.594384391707822, 47.980862869174459 ], [ -3.594664185576926, 47.980646228987567 ], [ -3.594839751448544, 47.980513332952256 ], [ -3.596055813237214, 47.981323791554757 ], [ -3.597890984056753, 47.982581830527394 ], [ -3.597921797378711, 47.982602367987212 ], [ -3.598866323085759, 47.983243411401972 ], [ -3.599749290529358, 47.983841844425939 ], [ -3.603380858045872, 47.986219126908324 ], [ -3.604116318815837, 47.98676556120472 ], [ -3.604499460334047, 47.987049045501777 ], [ -3.604595484530662, 47.98712758402732 ], [ -3.604994451463453, 47.987382263362548 ], [ -3.606288023778211, 47.988207988399552 ], [ -3.60652153083575, 47.988382746046597 ], [ -3.606899637415619, 47.988632408744934 ], [ -3.608519625413787, 47.989795641089245 ], [ -3.608813878338885, 47.989979265730256 ], [ -3.609146333651132, 47.990211158445518 ], [ -3.610761976826169, 47.991267004903492 ], [ -3.611675162213915, 47.991905826868205 ], [ -3.614424602658496, 47.993728974824052 ], [ -3.614828730707737, 47.994015918869408 ], [ -3.616522287788648, 47.995131497213791 ], [ -3.61790265394799, 47.996063075024821 ], [ -3.618671613290027, 47.99656260489509 ], [ -3.619323073370449, 47.997050608301393 ], [ -3.620344943136161, 47.997714528453869 ], [ -3.620872354230505, 47.998028421850009 ], [ -3.621040356329136, 47.998097649108857 ] ] ] } },
{ "type": "Feature", "properties": { "ID": "COURDEAU0000002215485382", "CODE_HYDRO": "06C0000002215485382", "TOPONYME": "Canal 2", "STATUT_TOP": "Collecté", "IMPORTANCE": "6", "DATE_CREAT": "2020-10-21 09:35:44", "DATE_MAJ": "2022-02-09 21:19:55", "DATE_APP": null, "DATE_CONF": null, "SOURCE": null, "ID_SOURCE": null, "STATUT": "Validé", "MAREE": null, "PERMANENT": null, "COMMENT": null }, "geometry": { "type": "MultiLineString", "coordinates": [ [ [ -3.555418919095478, 48.002810177609774 ], [ -3.555517216562726, 48.002052960352216 ], [ -3.555540663221922, 48.001547678233848 ], [ -3.555548620038642, 48.001062007672004 ], [ -3.555486864128918, 47.999751931750822 ], [ -3.555734967236983, 47.999264971641679 ], [ -3.555884052512044, 47.998889427198307 ], [ -3.556120165693905, 47.998385366710366 ], [ -3.556387526515858, 47.997668906170816 ], [ -3.557038648372576, 47.996442164155894 ], [ -3.557053112518644, 47.996172720450815 ], [ -3.557613151030445, 47.995014641171522 ], [ -3.557719522354769, 47.99487578630665 ], [ -3.55789615425611, 47.994716890603783 ], [ -3.559944794003976, 47.993622504018788 ], [ -3.562059699804509, 47.992334791690581 ], [ -3.563170190367637, 47.991596974054048 ], [ -3.563168702310213, 47.991137169834943 ], [ -3.562680882530815, 47.990341141865997 ], [ -3.562436771324755, 47.989615917523466 ], [ -3.563617140520241, 47.988589847302165 ], [ -3.565190918023216, 47.9884054035345 ], [ -3.56609746258995, 47.988212132968826 ], [ -3.56658094265606, 47.988068593289228 ], [ -3.566905136671623, 47.987904992876722 ], [ -3.567336331070278, 47.987640859455084 ], [ -3.567354082165122, 47.987561522147899 ], [ -3.56732785122747, 47.987364825163993 ], [ -3.567405890416503, 47.987139571962899 ], [ -3.567493101497698, 47.986894579563113 ], [ -3.567595493845738, 47.986582458840175 ], [ -3.567711950506367, 47.986177133563714 ], [ -3.567855941922764, 47.985545540328971 ], [ -3.567880960375287, 47.985052553680774 ], [ -3.568132046278089, 47.982763334303669 ], [ -3.568144533902735, 47.981934462888873 ], [ -3.56823579713637, 47.981304876392443 ], [ -3.568272127510154, 47.980957712298988 ], [ -3.568344665785159, 47.980488669919254 ], [ -3.568363634487391, 47.980377173240925 ], [ -3.568513273317119, 47.979707380453704 ], [ -3.568614918094202, 47.979248118440651 ], [ -3.569192040707676, 47.977688826751432 ], [ -3.569981605811616, 47.976190506300426 ], [ -3.570350056990686, 47.975580280317075 ], [ -3.570767751324138, 47.974892881636507 ], [ -3.570958632549328, 47.974467595255788 ], [ -3.571146218853567, 47.974184771398001 ], [ -3.571172032075852, 47.974114791550591 ], [ -3.571360428210656, 47.973588305646189 ], [ -3.571740826968207, 47.972495559410461 ], [ -3.572123568476337, 47.971451902178146 ], [ -3.57217736609557, 47.971143403839207 ], [ -3.572275860540266, 47.97037756581804 ], [ -3.572284958609967, 47.969470470372954 ], [ -3.572314641316096, 47.969242714132733 ], [ -3.572460542652701, 47.968948325201907 ], [ -3.572642456137009, 47.968703701005737 ], [ -3.572870869633255, 47.968398707354396 ], [ -3.572968237252733, 47.968218286382111 ], [ -3.573090934925763, 47.967924964051392 ], [ -3.572921131012857, 47.967794353685449 ], [ -3.572939411732184, 47.967756406486984 ], [ -3.573579511173932, 47.967199138087551 ], [ -3.572274697248954, 47.966406670951343 ], [ -3.570282986080896, 47.965018026947462 ], [ -3.56797034982886, 47.963432874381866 ], [ -3.56799230981952, 47.96313140111009 ], [ -3.56999165179101, 47.959429059485927 ], [ -3.572051984696579, 47.9541126168657 ], [ -3.572909961868463, 47.952580428209657 ], [ -3.573021347872056, 47.95202941237055 ], [ -3.573108819390069, 47.951831936198545 ], [ -3.573084658337538, 47.951524940816071 ], [ -3.573074879017831, 47.951449649481034 ], [ -3.572994219380848, 47.951356077413521 ], [ -3.572894976582099, 47.951252936997633 ], [ -3.572189429627808, 47.950372882001332 ], [ -3.569284671036184, 47.946757491186375 ], [ -3.568885953457234, 47.946225347345845 ], [ -3.568750529902952, 47.946021861937922 ], [ -3.568662800743985, 47.945892897306649 ], [ -3.567316441633399, 47.944428304142434 ], [ -3.566944286517005, 47.943973317689611 ], [ -3.566432397075898, 47.943317821875453 ], [ -3.566293833685585, 47.943141857474146 ], [ -3.564706328048598, 47.941155927210531 ], [ -3.563915254829506, 47.940148451820107 ], [ -3.560819252782174, 47.936541343008741 ], [ -3.558694691565808, 47.936729955839411 ], [ -3.557941826943164, 47.936768421818428 ], [ -3.557901808730108, 47.936769147756095 ], [ -3.557876978380642, 47.93675791943808 ], [ -3.557550793200109, 47.936590426982676 ], [ -3.557380409958891, 47.936366305484057 ], [ -3.557207218736427, 47.936105346093072 ], [ -3.557008616090039, 47.935848471868042 ], [ -3.556808907998758, 47.935620693540031 ], [ -3.556707122598499, 47.935474581869599 ], [ -3.556576599112265, 47.935364671808188 ], [ -3.55642609944454, 47.935281944688967 ], [ -3.556106341287235, 47.935056342455724 ] ] ] } },
{ "type": "Feature", "properties": { "ID": "COURDEAU0000002215480672", "CODE_HYDRO": "06C0000002215480672", "TOPONYME": "Canal 3", "STATUT_TOP": "Validé", "IMPORTANCE": "5", "DATE_CREAT": "2020-10-21 09:35:44", "DATE_MAJ": "2021-04-27 22:00:17", "DATE_APP": null, "DATE_CONF": null, "SOURCE": null, "ID_SOURCE": null, "STATUT": "Validé", "MAREE": null, "PERMANENT": null, "COMMENT": null }, "geometry": { "type": "MultiLineString", "coordinates": [ [ [ -3.590981680366577, 47.971084639518494 ], [ -3.591031051550435, 47.971059571957852 ], [ -3.591147055133903, 47.971054225708031 ], [ -3.591353873077062, 47.971041497450599 ], [ -3.592070675901513, 47.970960790656633 ], [ -3.592853624628397, 47.969068385432678 ], [ -3.593461330119381, 47.967859066797104 ], [ -3.593484041292839, 47.967815075918551 ], [ -3.593678319833726, 47.967631981232273 ], [ -3.59427621955554, 47.967297554484063 ], [ -3.595029800649945, 47.966742478634657 ], [ -3.59525197093046, 47.966601317873284 ], [ -3.595765619971801, 47.966323443105694 ], [ -3.596018250154106, 47.96621200754916 ], [ -3.59627200373924, 47.966126647490569 ], [ -3.59676896210342, 47.966012420523001 ], [ -3.596999745581679, 47.965922003811727 ], [ -3.598594638136443, 47.965164531904506 ], [ -3.599197177728107, 47.964929798602967 ], [ -3.600334901168494, 47.964515689001445 ], [ -3.600503605927385, 47.964508321792792 ], [ -3.601211630352348, 47.964603649438132 ], [ -3.601513710565564, 47.964632653703191 ], [ -3.601625958826225, 47.964614965851808 ], [ -3.601837225077801, 47.964539480157228 ], [ -3.602454702393069, 47.964187027531352 ], [ -3.603141401933549, 47.963897252942147 ], [ -3.603658392136677, 47.963697583851456 ], [ -3.605964341114528, 47.963176421264663 ], [ -3.60603635142853, 47.96310888885462 ], [ -3.606102970114124, 47.963016728393811 ], [ -3.6061853725088, 47.962840591641694 ], [ -3.606236057656986, 47.962780297769868 ], [ -3.606341853850521, 47.962822248211566 ], [ -3.607500791367872, 47.963412337274235 ], [ -3.607733649329349, 47.963210072745355 ], [ -3.607947665553358, 47.963061072593547 ], [ -3.608105583164418, 47.963004442504044 ], [ -3.608975763686591, 47.962649329533676 ], [ -3.609397701747068, 47.962513655283772 ], [ -3.609667230271883, 47.96245617671903 ], [ -3.610530223829116, 47.962292482324358 ], [ -3.610756758002895, 47.962258668826678 ], [ -3.611265478504848, 47.962222797323633 ], [ -3.611505590427411, 47.962219903538653 ], [ -3.611689590412856, 47.962197504519224 ], [ -3.612430198635118, 47.962097270301427 ], [ -3.613120009747573, 47.961891811577104 ], [ -3.613383682146631, 47.961821951055754 ], [ -3.613447137933295, 47.961814015404173 ], [ -3.61364370166407, 47.961793396405398 ], [ -3.613818482446507, 47.96179226794537 ], [ -3.614092807868503, 47.961831428637097 ], [ -3.614926956277641, 47.962044147768381 ], [ -3.615141478915843, 47.962049936792994 ], [ -3.615583622851265, 47.961992809398623 ], [ -3.615957661908848, 47.961899081451648 ], [ -3.616449909839133, 47.961796969541737 ], [ -3.616548285862293, 47.961756009440677 ], [ -3.617160013860132, 47.960992673477321 ], [ -3.61730164207531, 47.960808511538346 ], [ -3.617554937535795, 47.960621966082869 ], [ -3.617919588247522, 47.96032881749602 ], [ -3.618000346730804, 47.960252258889426 ], [ -3.61876410577122, 47.960039050547934 ], [ -3.620337120759809, 47.959746857310506 ], [ -3.620886152552949, 47.959645859045793 ], [ -3.620991335865215, 47.959873226488384 ], [ -3.621474638489762, 47.959784717256809 ], [ -3.62163395983051, 47.959746494250709 ], [ -3.622028326346648, 47.960404102756385 ], [ -3.622220680383744, 47.960608675129038 ], [ -3.622440955592732, 47.960798474765411 ], [ -3.622673295145183, 47.960947134362186 ], [ -3.623013267816536, 47.961088729420098 ], [ -3.623847874120113, 47.961345860739755 ], [ -3.62423451250588, 47.961309069726099 ], [ -3.624491006378397, 47.961262039612791 ], [ -3.624857178940427, 47.96120951685468 ], [ -3.625049302895842, 47.961194928106636 ], [ -3.625236361660583, 47.961203227069447 ], [ -3.625373205370873, 47.961259573652967 ], [ -3.625468306178947, 47.961362603051427 ], [ -3.62560747090011, 47.9614695692716 ], [ -3.625729646339193, 47.961524092839412 ], [ -3.625925006325771, 47.961535620405968 ], [ -3.62637635679731, 47.961457193901751 ], [ -3.626607834068248, 47.961403535853634 ], [ -3.627674117906617, 47.961207001963402 ], [ -3.628646644603634, 47.960984087988763 ], [ -3.629066101784377, 47.96085751578795 ], [ -3.630041525013476, 47.960613196321503 ], [ -3.630428224244886, 47.960518157135468 ], [ -3.630967359462006, 47.960400075510734 ], [ -3.631146581852977, 47.960336184323566 ], [ -3.631556294810628, 47.961092157063675 ], [ -3.63706125117368, 47.958780933417671 ], [ -3.637515316776127, 47.957950058351187 ], [ -3.637764639221473, 47.957812449116275 ], [ -3.637970415877303, 47.957600419204155 ], [ -3.638336427298284, 47.957155537927974 ], [ -3.639351049324797, 47.956478236351813 ], [ -3.64005476625988, 47.956009357620431 ], [ -3.640124751360443, 47.956052115242741 ], [ -3.640427661273547, 47.956228195684858 ], [ -3.640689464869218, 47.956434116364449 ], [ -3.640922499188242, 47.956677783206004 ], [ -3.641124207993152, 47.956914702468467 ], [ -3.641244841229804, 47.957180674990099 ], [ -3.641350793378798, 47.95772834464023 ], [ -3.641418384195572, 47.957948828657663 ], [ -3.641509229350756, 47.95816670568172 ], [ -3.641539296529506, 47.958377255293158 ], [ -3.641442841363641, 47.958989901957466 ], [ -3.641443912606063, 47.959187620172813 ], [ -3.641492400745887, 47.959412325577205 ], [ -3.641582054525283, 47.959605658624412 ], [ -3.641709404281643, 47.959804331766946 ], [ -3.641842384946782, 47.959964802333616 ], [ -3.641973264633307, 47.960068527584724 ], [ -3.642110457887997, 47.960115673249177 ], [ -3.642295013946985, 47.960134633405545 ], [ -3.642642353296647, 47.960078639704747 ], [ -3.642822874501912, 47.96003621843802 ], [ -3.64302369275822, 47.960014119622613 ], [ -3.643233948318336, 47.960021324584574 ], [ -3.643466092856204, 47.960062676044075 ], [ -3.64367680239205, 47.960114332973035 ], [ -3.643870284353149, 47.960176378271299 ], [ -3.644064561889018, 47.960273687345548 ], [ -3.644189814846384, 47.960415613618594 ], [ -3.644235581446267, 47.960600418779393 ], [ -3.644235176471505, 47.961008065385641 ] ] ] } }
]
}
