{
"type": "FeatureCollection",
"name": "scen_mir_terre",
"crs": { "type": "name", "properties": { "name": "urn:ogc:def:crs:OGC:1.3:CRS84" } },
"features": [
{ "type": "Feature", "properties": { "id": 23, "categ_enj": "routes", "ord_scen": 5, "prec_lien": 21, "descrip": "Les routes deviennent inaccessibles en raison de leur inadéquation (sens uniques, absence de bas-côtés), de la saturation en eau liée à l’imperméabilité du bitume, et des dégradations provoquées par l’érosion. Ces effets sont aggravés par la présence de véhicules déplacés par les crues, ce qui accroît le risque d’embâcles et rend difficile, voire impossible, l'évacuation de la population.", "levier": "" }, "geometry": null },
{ "type": "Feature", "properties": { "id": 1, "categ_enj": "inondation", "ord_scen": 1, "prec_lien": 0, "descrip": "La commune est exposée à un scénario multirisque d’inondation combinant deux risques majeurs : la crue de la rivière de la Flèche et la rupture d’un barrage en amont. Ces phénomènes se cumulent et provoquent une montée rapide des eaux sur l’ensemble du territoire. La submersion atteint les zones habitées et les infrastructures, perturbe fortement les réseaux de circulation et les fonctions essentielles du territoire, et génère des impacts majeurs sur la sécurité des populations ainsi que sur la continuité des activités.", "levier": "" }, "geometry": { "type": "Point", "coordinates": [ -3.605089180363637, 47.967312854930576 ] } },
{ "type": "Feature", "properties": { "id": 2, "categ_enj": "routes", "ord_scen": 2, "prec_lien": 1, "descrip": "Les routes deviennent inaccessibles en raison de leur inadéquation (sens uniques, absence de bas-côtés), de la saturation en eau liée à l’imperméabilité du bitume, et des dégradations provoquées par l’érosion. Ces effets sont aggravés par la présence de véhicules déplacés par les crues, ce qui accroît le risque d’embâcles et rend difficile, voire impossible, l'évacuation de la population.", "levier": "" }, "geometry": { "type": "Point", "coordinates": [ -3.587661539855521, 47.959082069770908 ] } },
{ "type": "Feature", "properties": { "id": 3, "categ_enj": "milieu naturel et forestier", "ord_scen": 2, "prec_lien": 1, "descrip": "L’inondation entraîne une dégradation de la qualité des habitats naturels ainsi que leur fragmentation. Les écoulements, les dépôts de sédiments, l’érosion et les apports de polluants modifient durablement les milieux, altérant leurs caractéristiques écologiques. Cette perturbation réduit la continuité des habitats, affecte les conditions de vie des espèces et compromet le fonctionnement des écosystèmes.", "levier": "" }, "geometry": { "type": "Point", "coordinates": [ -3.579425584395214, 47.932853998833153 ] } },
{ "type": "Feature", "properties": { "id": 4, "categ_enj": "postes électriques", "ord_scen": 2, "prec_lien": 1, "descrip": "plus de distribution d'électricité par court-circuit, risque électrique immédiat (électrocution, arc électrique), risque d'explosion", "levier": "déplacement postes en hauteur" }, "geometry": { "type": "Point", "coordinates": [ -3.62349342593304, 47.959525189307797 ] } },
{ "type": "Feature", "properties": { "id": 5, "categ_enj": "site SEVESO", "ord_scen": 2, "prec_lien": 1, "descrip": "site inondé : risque natech d'explosion et diffusion de produits chimiques et matières potentiellement dangereuses", "levier": "" }, "geometry": { "type": "Point", "coordinates": [ -3.578412135472311, 47.967169606740882 ] } },
{ "type": "Feature", "properties": { "id": 6, "categ_enj": "milieu agricole", "ord_scen": 2, "prec_lien": 1, "descrip": "Les inondations ont un impact significatif sur l’agriculture en réduisant la surface de terres exploitables. La saturation prolongée des sols limite leur drainage et rend difficile voire impossible la mise en culture des parcelles. Les écoulements d’eau peuvent aussi provoquer une érosion des terrains, modifiant leur structure et diminuant leur capacité de production, ce qui peut entraîner une baisse durable des rendements.", "levier": "Face aux risques liés aux inondations, l’adaptation des pratiques agricoles constitue un levier important pour limiter les pertes et maintenir la productivité des sols. Des techniques comme le non-labour permettent de mieux préserver la structure du sol et de réduire son érosion lors des épisodes de fortes pluies. La couverture permanente des sols, par des résidus de culture ou des couverts végétaux, aide également à limiter le ruissellement. Ces pratiques contribuent ainsi à mieux gérer les ressources eau et sol et à renforcer la résilience des parcelles face aux aléas hydriques." }, "geometry": { "type": "Point", "coordinates": [ -3.637588739970761, 47.927436381437666 ] } },
{ "type": "Feature", "properties": { "id": 7, "categ_enj": "station d'épuration", "ord_scen": 2, "prec_lien": 1, "descrip": "L’inondation entraîne la saturation ou l’endommagement des stations d’épuration et des réseaux d’assainissement. L’augmentation brutale des volumes d’eau dépasse les capacités de collecte et de traitement des installations, provoquant des débordements et des déversements d’eaux usées dans le milieu naturel. Cette situation est accentuée par l’infiltration des eaux de crue dans les réseaux et par les dommages subis par les infrastructures, compromettant leur fonctionnement et augmentant les risques de pollution des cours d’eau.", "levier": "" }, "geometry": { "type": "Point", "coordinates": [ -3.559316334299918, 48.002232669706615 ] } },
{ "type": "Feature", "properties": { "id": 8, "categ_enj": "routes", "ord_scen": 3, "prec_lien": 3, "descrip": "Les routes deviennent inaccessibles en raison de leur inadéquation (sens uniques, absence de bas-côtés), de la saturation en eau liée à l’imperméabilité du bitume, et des dégradations provoquées par l’érosion. Ces effets sont aggravés par la présence de véhicules déplacés par les crues, ce qui accroît le risque d’embâcles et rend difficile, voire impossible, l'évacuation de la population.", "levier": "" }, "geometry": { "type": "Point", "coordinates": [ -3.587661539855521, 47.959082069770908 ] } },
{ "type": "Feature", "properties": { "id": 9, "categ_enj": "milieu naturel et forestier", "ord_scen": 3, "prec_lien": 5, "descrip": "L’inondation entraîne une dégradation de la qualité des habitats naturels ainsi que leur fragmentation. Les écoulements, les dépôts de sédiments, l’érosion et les apports de polluants modifient durablement les milieux, altérant leurs caractéristiques écologiques. Cette perturbation réduit la continuité des habitats, affecte les conditions de vie des espèces et compromet le fonctionnement des écosystèmes.", "levier": "" }, "geometry": { "type": "Point", "coordinates": [ -3.579425584395214, 47.932853998833153 ] } },
{ "type": "Feature", "properties": { "id": 10, "categ_enj": "milieu naturel et forestier", "ord_scen": 3, "prec_lien": 6, "descrip": "L’inondation entraîne une dégradation de la qualité des habitats naturels ainsi que leur fragmentation. Les écoulements, les dépôts de sédiments, l’érosion et les apports de polluants modifient durablement les milieux, altérant leurs caractéristiques écologiques. Cette perturbation réduit la continuité des habitats, affecte les conditions de vie des espèces et compromet le fonctionnement des écosystèmes.", "levier": "" }, "geometry": { "type": "Point", "coordinates": [ -3.579425584395214, 47.932853998833153 ] } },
{ "type": "Feature", "properties": { "id": 11, "categ_enj": "milieu naturel et forestier", "ord_scen": 3, "prec_lien": 7, "descrip": "L’inondation entraîne une dégradation de la qualité des habitats naturels ainsi que leur fragmentation. Les écoulements, les dépôts de sédiments, l’érosion et les apports de polluants modifient durablement les milieux, altérant leurs caractéristiques écologiques. Cette perturbation réduit la continuité des habitats, affecte les conditions de vie des espèces et compromet le fonctionnement des écosystèmes.", "levier": "" }, "geometry": { "type": "Point", "coordinates": [ -3.579425584395214, 47.932853998833153 ] } },
{ "type": "Feature", "properties": { "id": 12, "categ_enj": "services de secours", "ord_scen": 3, "prec_lien": 5, "descrip": "difficultés à gérer aléas croisés", "levier": "préparation gestion du multirisque" }, "geometry": { "type": "Point", "coordinates": [ -3.592908861369545, 47.954467150918575 ] } },
{ "type": "Feature", "properties": { "id": 13, "categ_enj": "bati", "ord_scen": 2, "prec_lien": 1, "descrip": "L’inondation entraîne la submersion de nombreux bâtiments, pour la plupart situés en zone inondable. Les habitations sont rapidement touchées par la montée des eaux, provoquant des dégâts importants sur les structures.\nCette vulnérabilité est renforcée par des constructions dont la hauteur et la conception n’ont pas suffisamment pris en compte les épisodes de crue antérieurs, ainsi que par une urbanisation persistante en zones inondables.\n", "levier": "La mise en place de bâtiments hors zone inondable constitue un levier important de réduction de la vulnérabilité du territoire. En limitant l’urbanisation dans les secteurs exposés, il est possible de réduire significativement les dommages potentiels liés aux inondations.\nDe même, l’intégration systématique d’un niveau refuge dans les constructions permet de garantir une mise en sécurité des occupants lors des épisodes de crue, en adaptant le bâti aux hauteurs d’eau observées lors des événements précédents.\n" }, "geometry": { "type": "Point", "coordinates": [ -3.612364051358343, 47.988798821844625 ] } },
{ "type": "Feature", "properties": { "id": 14, "categ_enj": "site touristique", "ord_scen": 3, "prec_lien": 3, "descrip": "L’inondation entraîne une diminution de l’activité touristique en rendant de nombreux sites naturels inaccessibles ou difficilement praticables. Les sentiers, points de vue et espaces de loisirs sont affectés par la submersion, les dépôts de sédiments, les glissements de terrain ou la dégradation des infrastructures d’accès. Cette situation est aggravée par l’altération des paysages et la fermeture temporaire de certains sites, réduisant leur attractivité et entraînant une baisse de la fréquentation touristique ainsi que des retombées économiques associées.", "levier": "" }, "geometry": { "type": "Point", "coordinates": [ -3.579421453489275, 47.939290372191678 ] } },
{ "type": "Feature", "properties": { "id": 15, "categ_enj": "faune et flore", "ord_scen": 4, "prec_lien": 9, "descrip": "L’inondation entraîne des impacts significatifs sur la biodiversité en perturbant les habitats naturels et les conditions de vie des espèces. La submersion, l’érosion, la modification des sols et l’apport de polluants peuvent provoquer une dégradation des milieux, une diminution des ressources disponibles et une perturbation des cycles biologiques. Ces changements affectent la répartition des espèces, fragilisent certains écosystèmes et peuvent entraîner une diminution locale de la diversité biologique.\n", "levier": "" }, "geometry": null },
{ "type": "Feature", "properties": { "id": 16, "categ_enj": "faune et flore", "ord_scen": 4, "prec_lien": 10, "descrip": "L’inondation entraîne des impacts significatifs sur la biodiversité en perturbant les habitats naturels et les conditions de vie des espèces. La submersion, l’érosion, la modification des sols et l’apport de polluants peuvent provoquer une dégradation des milieux, une diminution des ressources disponibles et une perturbation des cycles biologiques. Ces changements affectent la répartition des espèces, fragilisent certains écosystèmes et peuvent entraîner une diminution locale de la diversité biologique.\n", "levier": "" }, "geometry": { "type": "Point", "coordinates": [ -3.597255951382607, 47.926462958495549 ] } },
{ "type": "Feature", "properties": { "id": 17, "categ_enj": "faune et flore", "ord_scen": 4, "prec_lien": 11, "descrip": "L’inondation entraîne des impacts significatifs sur la biodiversité en perturbant les habitats naturels et les conditions de vie des espèces. La submersion, l’érosion, la modification des sols et l’apport de polluants peuvent provoquer une dégradation des milieux, une diminution des ressources disponibles et une perturbation des cycles biologiques. Ces changements affectent la répartition des espèces, fragilisent certains écosystèmes et peuvent entraîner une diminution locale de la diversité biologique.\n", "levier": "" }, "geometry": { "type": "Point", "coordinates": [ -3.597255951382607, 47.926462958495549 ] } },
{ "type": "Feature", "properties": { "id": 18, "categ_enj": "services de secours", "ord_scen": 3, "prec_lien": 13, "descrip": "batiments et véhicules en zone inondable : difficultés/impossibilité de déplacement", "levier": "adaptation maximale des routes au risques rencontrés par territoire (désimperméabilisation des sols, double sens, chaussé inclinée)" }, "geometry": { "type": "Point", "coordinates": [ -3.592908861369545, 47.954467150918575 ] } },
{ "type": "Feature", "properties": { "id": 19, "categ_enj": "services de secours", "ord_scen": 3, "prec_lien": 2, "descrip": "Les services de secours sont fortement impactés par la montée rapide des eaux. La submersion des voiries limite rapidement la circulation des véhicules d’intervention, en particulier dans les zones basses et sur les axes secondaires, rendant certains secteurs difficilement accessibles.\nCette situation est aggravée par l’inadaptation des routes aux situations d’urgence (gabarits insuffisants, absence de contournements) et par la fragilisation des chaussées, qui ralentissent les déplacements des équipes.\nÀ cela s’ajoute la présence de nombreux véhicules sur les axes encore accessibles. Dans un contexte de panique, une partie de la population tente d’évacuer par ses propres moyens, provoquant des embouteillages qui compliquent encore les interventions.\n", "levier": "" }, "geometry": { "type": "Point", "coordinates": [ -3.592908861369545, 47.954467150918575 ] } },
{ "type": "Feature", "properties": { "id": 20, "categ_enj": "canaux de communication", "ord_scen": 3, "prec_lien": 4, "descrip": "difficultés / impossibilité de communiquer", "levier": "" }, "geometry": { "type": "Point", "coordinates": [ -3.593483057294612, 47.94872438721719 ] } },
{ "type": "Feature", "properties": { "id": 21, "categ_enj": "habitants", "ord_scen": 4, "prec_lien": 20, "descrip": "L’inondation provoque des réactions de panique chez une partie des habitants, en particulier lorsque les consignes de sécurité sont méconnues ou insuffisamment intégrées. En l’absence de préparation aux comportements à adopter, certains habitants tentent d’évacuer par des itinéraires exposés à la montée des eaux ou cherchent à rejoindre leurs proches, augmentant ainsi leur exposition au danger.", "levier": "prévention des risques naturels" }, "geometry": { "type": "Point", "coordinates": [ -3.627086600113402, 47.977461320897014 ] } },
{ "type": "Feature", "properties": { "id": 22, "categ_enj": "services de secours", "ord_scen": 4, "prec_lien": 20, "descrip": "interventions difficiles à cibler", "levier": "prévoir moyens de communication hors réseau" }, "geometry": { "type": "Point", "coordinates": [ -3.592908861369545, 47.954467150918575 ] } },
{ "type": "Feature", "properties": { "id": 23, "categ_enj": "faune et flore", "ord_scen": 4, "prec_lien": 3, "descrip": "L’inondation entraîne des impacts significatifs sur la biodiversité en perturbant les habitats naturels et les conditions de vie des espèces. La submersion, l’érosion, la modification des sols et l’apport de polluants peuvent provoquer une dégradation des milieux, une diminution des ressources disponibles et une perturbation des cycles biologiques. Ces changements affectent la répartition des espèces, fragilisent certains écosystèmes et peuvent entraîner une diminution locale de la diversité biologique.\n", "levier": "" }, "geometry": { "type": "Point", "coordinates": [ -3.597255951382607, 47.926462958495549 ] } }
]
}
